2026-023D               
1 67677U 26023D   26048.21760953  .00013522  00000+0  58430-3 0  9994
2 67677  96.6468 123.5372 0019155 198.3628 161.6921 15.22407700  1730
2026-023E               
1 67678U 26023E   26048.21695580  .00015545  00000+0  66905-3 0  9991
2 67678  96.6361 123.5380 0019011 197.6850 162.3729 15.22518016  1739
2026-023F               
1 67679U 26023F   26048.21591105  .00018838  00000+0  80581-3 0  9994
2 67679  96.6369 126.0348 0020974 192.2795 167.7935 15.22652757  1727
2026-023G               
1 67680U 26023G   26048.21618200  .00015868  00000+0  67949-3 0  9995
2 67680  96.6297 126.0323 0022542 188.8501 171.2343 15.22618129  1729
2026-023H               
1 67681U 26023H   26047.69023008  .00000971  00000+0  44030-4 0  9999
2 67681  96.6443 125.5685 0022460 190.0290 170.0504 15.22597278  1645
2026-023J               
1 67682U 26023J   26048.21569983  .00015275  00000+0  65293-3 0  9992
2 67682  96.6398 126.0466 0022756 185.0303 175.0711 15.22682024  1723
ISS OBJECT XZ           
1 67683U 98067XZ  26047.65741968  .00039055  00000+0  68494-3 0  9990
2 67683  51.6311 176.2115 0010454 117.3582 242.8472 15.50110674  1520
GXIBA-1                 
1 67684U 98067YA  26047.65278759  .00074552  00000+0  12496-2 0  9995
2 67684  51.6308 176.1816 0012102 110.9325 249.2961 15.51081436  1528
CORAL                   
1 67685U 98067YB  26047.65651785  .00044575  00000+0  77477-3 0  9993
2 67685  51.6312 176.2061 0012396 113.0551 247.1746 15.50278727  1525
ISS OBJECT YC           
1 67686U 98067YC  26047.59123449  .00052403  00000+0  90420-3 0  9990
2 67686  51.6314 176.5206 0007796  86.2899 273.8981 15.50464751  1516
LEOPARD                 
1 67687U 98067YD  26047.65689112  .00043795  00000+0  76465-3 0  9999
2 67687  51.6316 176.2085 0007840  89.2385 270.9502 15.50209521  1445
ISS OBJECT YE           
1 67688U 98067YE  26047.65599918  .00048248  00000+0  83591-3 0  9990
2 67688  51.6315 176.2033 0007765  86.9328 273.2550 15.50385572  1445
